STARLINK-32264
1 61642U 24191X   26061.07836572  .00114511  00000+0  38251-2 0  9992
2 61642  42.9987 200.8438 0002985 337.4050  22.6671 15.29894287 76339
